{
    "type": "FeatureCollection",
    "features": [
        {
            "type": "Feature",
            "geometry": {
                "type": "Point",
                "coordinates": [
                    99.169833,
                    16.505556
                ]
            },
            "properties": {
                "station_code": "ridtele_TP.97",
                "station_name": "อุทยานแห่งชาติคลองวังเจ้า",
                "tambon": "ต.โกสัมพี",
                "amphoe": "อ.โกสัมพีนคร",
                "province": "จ.กำแพงเพชร",
                "sum_rainfall_48h": 263,
                "agency": "กรมชลประทาน ",
                "latest_rainfall_datetime": "2026-09-28T10:00:00+07:00"
            }
        },
        {
            "type": "Feature",
            "geometry": {
                "type": "Point",
                "coordinates": [
                    99.4194,
                    15.91465
                ]
            },
            "properties": {
                "station_code": "SKG003",
                "station_name": "สะพานต้นน้ำ (เกาะแก้ว-ตลิ่งสูง)",
                "tambon": "ต.ปางมะค่า",
                "amphoe": "อ.ขาณุวรลักษบุรี",
                "province": "จ.กำแพงเพชร",
                "sum_rainfall_48h": 141.60000000000002,
                "agency": "สถาบันสารสนเทศทรัพยากรน้ำ (องค์การมหาชน)",
                "latest_rainfall_datetime": "2026-09-28T11:00:00+07:00"
            }
        },
        {
            "type": "Feature",
            "geometry": {
                "type": "Point",
                "coordinates": [
                    99.32932,
                    16.12253
                ]
            },
            "properties": {
                "station_code": "KGLN",
                "station_name": "ทต.คลองลานพัฒนา",
                "tambon": "ต.คลองลานพัฒนา",
                "amphoe": "อ.คลองลาน",
                "province": "จ.กำแพงเพชร",
                "sum_rainfall_48h": 226.39999999999995,
                "agency": "สถาบันสารสนเทศทรัพยากรน้ำ (องค์การมหาชน)",
                "latest_rainfall_datetime": "2026-09-28T11:00:00+07:00"
            }
        },
        {
            "type": "Feature",
            "geometry": {
                "type": "Point",
                "coordinates": [
                    99.26475,
                    16.330917
                ]
            },
            "properties": {
                "station_code": "ridtele_TP.100",
                "station_name": "ฝายคลองสวนหมาก",
                "tambon": "ต.โป่งน้ำร้อน",
                "amphoe": "อ.คลองลาน",
                "province": "จ.กำแพงเพชร",
                "sum_rainfall_48h": 172,
                "agency": "กรมชลประทาน ",
                "latest_rainfall_datetime": "2026-09-28T11:00:00+07:00"
            }
        },
        {
            "type": "Feature",
            "geometry": {
                "type": "Point",
                "coordinates": [
                    101.12879,
                    14.27798
                ]
            },
            "properties": {
                "station_code": "WRRS",
                "station_name": "อบต.ศรีกะอาง",
                "tambon": "ต.ศรีกะอาง",
                "amphoe": "อ.บ้านนา",
                "province": "จ.นครนายก",
                "sum_rainfall_48h": 183.79999999999998,
                "agency": "สถาบันสารสนเทศทรัพยากรน้ำ (องค์การมหาชน)",
                "latest_rainfall_datetime": "2026-09-28T11:00:00+07:00"
            }
        },
        {
            "type": "Feature",
            "geometry": {
                "type": "Point",
                "coordinates": [
                    101.162164,
                    14.18205
                ]
            },
            "properties": {
                "station_code": "ridtele_TNy11",
                "station_name": "เขื่อนนายก",
                "tambon": "ต.ท่าช้าง",
                "amphoe": "อ.เมืองนครนายก",
                "province": "จ.นครนายก",
                "sum_rainfall_48h": 121.5,
                "agency": "กรมชลประทาน ",
                "latest_rainfall_datetime": "2026-09-28T11:00:00+07:00"
            }
        },
        {
            "type": "Feature",
            "geometry": {
                "type": "Point",
                "coordinates": [
                    101.13746,
                    14.07064
                ]
            },
            "properties": {
                "station_code": "BSCL",
                "station_name": "อบต.ศรีจุฬา",
                "tambon": "ต.ศรีจุฬา",
                "amphoe": "อ.เมืองนครนายก",
                "province": "จ.นครนายก",
                "sum_rainfall_48h": 124.00000000000001,
                "agency": "สถาบันสารสนเทศทรัพยากรน้ำ (องค์การมหาชน)",
                "latest_rainfall_datetime": "2026-09-28T11:00:00+07:00"
            }
        },
        {
            "type": "Feature",
            "geometry": {
                "type": "Point",
                "coordinates": [
                    101.30604,
                    14.321305
                ]
            },
            "properties": {
                "station_code": "MOU462",
                "station_name": "สะพานคลองวังตะไคร้",
                "tambon": "ต.สาริกา",
                "amphoe": "อ.เมืองนครนายก",
                "province": "จ.นครนายก",
                "sum_rainfall_48h": 114.60000000000001,
                "agency": "มูลนิธิอาสาเพื่อนพึ่ง (ภาฯ) ยามยาก สภากาชาดไทย",
                "latest_rainfall_datetime": "2026-09-28T11:00:00+07:00"
            }
        },
        {
            "type": "Feature",
            "geometry": {
                "type": "Point",
                "coordinates": [
                    99.41808,
                    15.84175
                ]
            },
            "properties": {
                "station_code": "SKG004",
                "station_name": "สะพานแม่เล่ย์",
                "tambon": "ต.แม่เล่ย์",
                "amphoe": "อ.แม่วงก์",
                "province": "จ.นครสวรรค์",
                "sum_rainfall_48h": 107.80000000000001,
                "agency": "สถาบันสารสนเทศทรัพยากรน้ำ (องค์การมหาชน)",
                "latest_rainfall_datetime": "2026-09-28T11:00:00+07:00"
            }
        },
        {
            "type": "Feature",
            "geometry": {
                "type": "Point",
                "coordinates": [
                    100.37952,
                    14.31976
                ]
            },
            "properties": {
                "station_code": "CPY017",
                "station_name": "เสนา",
                "tambon": "ต.เจ้าเสด็จ",
                "amphoe": "อ.เสนา",
                "province": "จ.พระนครศรีอยุธยา",
                "sum_rainfall_48h": 103,
                "agency": "สถาบันสารสนเทศทรัพยากรน้ำ (องค์การมหาชน)",
                "latest_rainfall_datetime": "2026-09-28T11:00:00+07:00"
            }
        },
        {
            "type": "Feature",
            "geometry": {
                "type": "Point",
                "coordinates": [
                    99.57508,
                    14.85733
                ]
            },
            "properties": {
                "station_code": "NIKS",
                "station_name": "อบต.นิคมกระเสียว",
                "tambon": "ต.นิคมกระเสียว",
                "amphoe": "อ.ด่านช้าง",
                "province": "จ.สุพรรณบุรี",
                "sum_rainfall_48h": 140.4,
                "agency": "สถาบันสารสนเทศทรัพยากรน้ำ (องค์การมหาชน)",
                "latest_rainfall_datetime": "2026-09-28T11:00:00+07:00"
            }
        },
        {
            "type": "Feature",
            "geometry": {
                "type": "Point",
                "coordinates": [
                    99.3923,
                    15.0219
                ]
            },
            "properties": {
                "station_code": "MOU443",
                "station_name": "หน่วยจัดการต้นน้ำและพัฒนาชุมชนในพื้นที่ป่าอนุรักษ์พุเตย",
                "tambon": "ต.วังยาว",
                "amphoe": "อ.ด่านช้าง",
                "province": "จ.สุพรรณบุรี",
                "sum_rainfall_48h": 137.5,
                "agency": "มูลนิธิอาสาเพื่อนพึ่ง (ภาฯ) ยามยาก สภากาชาดไทย",
                "latest_rainfall_datetime": "2026-09-28T11:00:00+07:00"
            }
        },
        {
            "type": "Feature",
            "geometry": {
                "type": "Point",
                "coordinates": [
                    99.40895,
                    15.23958
                ]
            },
            "properties": {
                "station_code": "MOU080",
                "station_name": "หน่วยพิทักษ์ป่าเขาปันโส",
                "tambon": "ต.คอกควาย",
                "amphoe": "อ.บ้านไร่",
                "province": "จ.อุทัยธานี",
                "sum_rainfall_48h": 196.8,
                "agency": "มูลนิธิอาสาเพื่อนพึ่ง (ภาฯ) ยามยาก สภากาชาดไทย",
                "latest_rainfall_datetime": "2026-09-28T11:00:00+07:00"
            }
        },
        {
            "type": "Feature",
            "geometry": {
                "type": "Point",
                "coordinates": [
                    99.51935,
                    15.08265
                ]
            },
            "properties": {
                "station_code": "BARI",
                "station_name": "ศูนย์อปพร. อบต.บ้านไร่",
                "tambon": "ต.บ้านไร่",
                "amphoe": "อ.บ้านไร่",
                "province": "จ.อุทัยธานี",
                "sum_rainfall_48h": 159.2,
                "agency": "สถาบันสารสนเทศทรัพยากรน้ำ (องค์การมหาชน)",
                "latest_rainfall_datetime": "2026-09-28T11:00:00+07:00"
            }
        },
        {
            "type": "Feature",
            "geometry": {
                "type": "Point",
                "coordinates": [
                    101.85303,
                    12.77083
                ]
            },
            "properties": {
                "station_code": "MMNY",
                "station_name": "อบต.นายายอาม",
                "tambon": "ต.นายายอาม",
                "amphoe": "อ.นายายอาม",
                "province": "จ.จันทบุรี",
                "sum_rainfall_48h": 233.6,
                "agency": "สถาบันสารสนเทศทรัพยากรน้ำ (องค์การมหาชน)",
                "latest_rainfall_datetime": "2026-09-28T11:00:00+07:00"
            }
        },
        {
            "type": "Feature",
            "geometry": {
                "type": "Point",
                "coordinates": [
                    100.97028,
                    13.90535
                ]
            },
            "properties": {
                "station_code": "DKLG",
                "station_name": "อบต.ดอนฉิมพลี",
                "tambon": "ต.ดอนฉิมพลี",
                "amphoe": "อ.บางน้ำเปรี้ยว",
                "province": "จ.ฉะเชิงเทรา",
                "sum_rainfall_48h": 185.60000000000002,
                "agency": "สถาบันสารสนเทศทรัพยากรน้ำ (องค์การมหาชน)",
                "latest_rainfall_datetime": "2026-09-28T11:00:00+07:00"
            }
        },
        {
            "type": "Feature",
            "geometry": {
                "type": "Point",
                "coordinates": [
                    100.9666,
                    13.83819
                ]
            },
            "properties": {
                "station_code": "BKK016",
                "station_name": "ปากคลองพระองค์เจ้าฯ (บางน้ำเปรี้ยว)",
                "tambon": "ต.บางน้ำเปรี้ยว",
                "amphoe": "อ.บางน้ำเปรี้ยว",
                "province": "จ.ฉะเชิงเทรา",
                "sum_rainfall_48h": 157.80000000000004,
                "agency": "สถาบันสารสนเทศทรัพยากรน้ำ (องค์การมหาชน)",
                "latest_rainfall_datetime": "2026-09-28T11:00:00+07:00"
            }
        },
        {
            "type": "Feature",
            "geometry": {
                "type": "Point",
                "coordinates": [
                    101.65024,
                    12.802991
                ]
            },
            "properties": {
                "station_code": "RAY001",
                "station_name": "เมืองแกลง",
                "tambon": "ต.บ้านนา",
                "amphoe": "อ.แกลง",
                "province": "จ.ระยอง",
                "sum_rainfall_48h": 172.60000000000002,
                "agency": "สถาบันสารสนเทศทรัพยากรน้ำ (องค์การมหาชน)",
                "latest_rainfall_datetime": "2026-09-28T11:00:00+07:00"
            }
        },
        {
            "type": "Feature",
            "geometry": {
                "type": "Point",
                "coordinates": [
                    101.72454,
                    12.912333
                ]
            },
            "properties": {
                "station_code": "MOU479",
                "station_name": "ที่ทำการอุทยานแห่งชาติเขาชะเมา-เขาวง",
                "tambon": "ต.น้ำเป็น",
                "amphoe": "อ.เขาชะเมา",
                "province": "จ.ระยอง",
                "sum_rainfall_48h": 248.2,
                "agency": "มูลนิธิอาสาเพื่อนพึ่ง (ภาฯ) ยามยาก สภากาชาดไทย",
                "latest_rainfall_datetime": "2026-09-28T11:00:00+07:00"
            }
        },
        {
            "type": "Feature",
            "geometry": {
                "type": "Point",
                "coordinates": [
                    101.66171,
                    13.038727
                ]
            },
            "properties": {
                "station_code": "ONE089",
                "station_name": "โรงเรียนบ้านสีระมัน",
                "tambon": "ต.ห้วยทับมอญ",
                "amphoe": "อ.เขาชะเมา",
                "province": "จ.ระยอง",
                "sum_rainfall_48h": 242.8,
                "agency": "สถาบันสารสนเทศทรัพยากรน้ำ (องค์การมหาชน)",
                "latest_rainfall_datetime": "2026-09-28T11:00:00+07:00"
            }
        },
        {
            "type": "Feature",
            "geometry": {
                "type": "Point",
                "coordinates": [
                    101.30041,
                    12.706804
                ]
            },
            "properties": {
                "station_code": "RAY004",
                "station_name": "บ้านค่าย",
                "tambon": "ต.ตาขัน",
                "amphoe": "อ.บ้านค่าย",
                "province": "จ.ระยอง",
                "sum_rainfall_48h": 199.6,
                "agency": "สถาบันสารสนเทศทรัพยากรน้ำ (องค์การมหาชน)",
                "latest_rainfall_datetime": "2026-09-28T11:00:00+07:00"
            }
        },
        {
            "type": "Feature",
            "geometry": {
                "type": "Point",
                "coordinates": [
                    101.404884,
                    12.697516
                ]
            },
            "properties": {
                "station_code": "MOU375",
                "station_name": "สถานีวิจัยต้นน้ำชายฝั่งทะเลตะวันออก",
                "tambon": "ต.บ้านแลง",
                "amphoe": "อ.เมืองระยอง",
                "province": "จ.ระยอง",
                "sum_rainfall_48h": 273,
                "agency": "มูลนิธิอาสาเพื่อนพึ่ง (ภาฯ) ยามยาก สภากาชาดไทย",
                "latest_rainfall_datetime": "2026-09-28T11:00:00+07:00"
            }
        },
        {
            "type": "Feature",
            "geometry": {
                "type": "Point",
                "coordinates": [
                    98.8889,
                    14.9616
                ]
            },
            "properties": {
                "station_code": "MOU444",
                "station_name": "หน่วยจัดการต้นน้ำและพัฒนาชุมชนในพื้นที่ป่าอนุรักษ์คลิตี้",
                "tambon": "ต.ชะแล",
                "amphoe": "อ.ทองผาภูมิ",
                "province": "จ.กาญจนบุรี",
                "sum_rainfall_48h": 121.8,
                "agency": "มูลนิธิอาสาเพื่อนพึ่ง (ภาฯ) ยามยาก สภากาชาดไทย",
                "latest_rainfall_datetime": "2026-09-28T11:00:00+07:00"
            }
        },
        {
            "type": "Feature",
            "geometry": {
                "type": "Point",
                "coordinates": [
                    98.635243,
                    14.742605
                ]
            },
            "properties": {
                "station_code": "ridtele_TK.13",
                "station_name": "วัดท่าขนุน",
                "tambon": "ต.ท่าขนุน",
                "amphoe": "อ.ทองผาภูมิ",
                "province": "จ.กาญจนบุรี",
                "sum_rainfall_48h": 232,
                "agency": "กรมชลประทาน ",
                "latest_rainfall_datetime": "2026-09-28T11:00:00+07:00"
            }
        },
        {
            "type": "Feature",
            "geometry": {
                "type": "Point",
                "coordinates": [
                    98.3811,
                    14.6659
                ]
            },
            "properties": {
                "station_code": "MOU442",
                "station_name": "หน่วยจัดการต้นน้ำและพัฒนาชุมชนในพื้นที่ป่าอนุรักษ์ปิล๊อก",
                "tambon": "ต.ปีล็อก",
                "amphoe": "อ.ทองผาภูมิ",
                "province": "จ.กาญจนบุรี",
                "sum_rainfall_48h": 309.09999999999997,
                "agency": "มูลนิธิอาสาเพื่อนพึ่ง (ภาฯ) ยามยาก สภากาชาดไทย",
                "latest_rainfall_datetime": "2026-09-28T11:00:00+07:00"
            }
        },
        {
            "type": "Feature",
            "geometry": {
                "type": "Point",
                "coordinates": [
                    98.7925,
                    14.5613
                ]
            },
            "properties": {
                "station_code": "ridtele_TK.77",
                "station_name": "วัดลิ่นถิ่น",
                "tambon": "ต.ลิ่นถิ่น",
                "amphoe": "อ.ทองผาภูมิ",
                "province": "จ.กาญจนบุรี",
                "sum_rainfall_48h": 233,
                "agency": "กรมชลประทาน ",
                "latest_rainfall_datetime": "2026-09-28T11:00:00+07:00"
            }
        },
        {
            "type": "Feature",
            "geometry": {
                "type": "Point",
                "coordinates": [
                    98.81722,
                    14.74058
                ]
            },
            "properties": {
                "station_code": "MOU239",
                "station_name": "หน่วยพิทักษ์อุทยานแห่งชาติที่ ศร.11 (เนินสวรรค์)",
                "tambon": "ต.สหกรณ์นิคม",
                "amphoe": "อ.ทองผาภูมิ",
                "province": "จ.กาญจนบุรี",
                "sum_rainfall_48h": 183.4,
                "agency": "มูลนิธิอาสาเพื่อนพึ่ง (ภาฯ) ยามยาก สภากาชาดไทย",
                "latest_rainfall_datetime": "2026-09-28T11:00:00+07:00"
            }
        },
        {
            "type": "Feature",
            "geometry": {
                "type": "Point",
                "coordinates": [
                    98.72946,
                    14.59539
                ]
            },
            "properties": {
                "station_code": "MKVKD02",
                "station_name": "บ้านหินดาด",
                "tambon": "ต.หินดาด",
                "amphoe": "อ.ทองผาภูมิ",
                "province": "จ.กาญจนบุรี",
                "sum_rainfall_48h": 225,
                "agency": "การไฟฟ้าฝ่ายผลิตแห่งประเทศไทย",
                "latest_rainfall_datetime": "2026-09-28T10:00:00+07:00"
            }
        },
        {
            "type": "Feature",
            "geometry": {
                "type": "Point",
                "coordinates": [
                    99.099697,
                    14.219713
                ]
            },
            "properties": {
                "station_code": "STN1632",
                "station_name": "บ้านพุพง",
                "tambon": "ต.ท่าเสา",
                "amphoe": "อ.ไทรโยค",
                "province": "จ.กาญจนบุรี",
                "sum_rainfall_48h": 124.5,
                "agency": "กรมทรัพยากรน้ำ",
                "latest_rainfall_datetime": "2026-09-28T10:00:00+07:00"
            }
        },
        {
            "type": "Feature",
            "geometry": {
                "type": "Point",
                "coordinates": [
                    98.84806,
                    14.4545
                ]
            },
            "properties": {
                "station_code": "MOU240",
                "station_name": "ที่ทำการอุทยานแห่งชาติไทรโยค",
                "tambon": "ต.ไทรโยค",
                "amphoe": "อ.ไทรโยค",
                "province": "จ.กาญจนบุรี",
                "sum_rainfall_48h": 276.6,
                "agency": "มูลนิธิอาสาเพื่อนพึ่ง (ภาฯ) ยามยาก สภากาชาดไทย",
                "latest_rainfall_datetime": "2026-09-28T11:00:00+07:00"
            }
        },
        {
            "type": "Feature",
            "geometry": {
                "type": "Point",
                "coordinates": [
                    99.17583,
                    14.09336
                ]
            },
            "properties": {
                "station_code": "MKVKD05",
                "station_name": "บ้านลุ่มสุ่ม (K.10)",
                "tambon": "ต.ลุ่มสุ่ม",
                "amphoe": "อ.ไทรโยค",
                "province": "จ.กาญจนบุรี",
                "sum_rainfall_48h": 164,
                "agency": "การไฟฟ้าฝ่ายผลิตแห่งประเทศไทย",
                "latest_rainfall_datetime": "2026-09-28T10:00:00+07:00"
            }
        },
        {
            "type": "Feature",
            "geometry": {
                "type": "Point",
                "coordinates": [
                    98.77193,
                    14.266877
                ]
            },
            "properties": {
                "station_code": "MOU451",
                "station_name": "หน่วยพิทักษ์อุทยานแห่งชาติที่ ทย.6 (เขาพลู)",
                "tambon": "ต.วังกระแจะ",
                "amphoe": "อ.ไทรโยค",
                "province": "จ.กาญจนบุรี",
                "sum_rainfall_48h": 281.4,
                "agency": "มูลนิธิอาสาเพื่อนพึ่ง (ภาฯ) ยามยาก สภากาชาดไทย",
                "latest_rainfall_datetime": "2026-09-28T11:00:00+07:00"
            }
        },
        {
            "type": "Feature",
            "geometry": {
                "type": "Point",
                "coordinates": [
                    99.1185,
                    14.035485
                ]
            },
            "properties": {
                "station_code": "STN1009",
                "station_name": "บ้านวังน้ำเขียว",
                "tambon": "ต.ศรีมงคล",
                "amphoe": "อ.ไทรโยค",
                "province": "จ.กาญจนบุรี",
                "sum_rainfall_48h": 129,
                "agency": "กรมทรัพยากรน้ำ",
                "latest_rainfall_datetime": "2026-09-28T10:00:00+07:00"
            }
        },
        {
            "type": "Feature",
            "geometry": {
                "type": "Point",
                "coordinates": [
                    99.378211,
                    14.542453
                ]
            },
            "properties": {
                "station_code": "ridtele_TK.64",
                "station_name": "ห้วยลำอีซู",
                "tambon": "ต.หนองรี",
                "amphoe": "อ.บ่อพลอย",
                "province": "จ.กาญจนบุรี",
                "sum_rainfall_48h": 190,
                "agency": "กรมชลประทาน ",
                "latest_rainfall_datetime": "2026-09-28T11:00:00+07:00"
            }
        },
        {
            "type": "Feature",
            "geometry": {
                "type": "Point",
                "coordinates": [
                    99.4973,
                    14.4678
                ]
            },
            "properties": {
                "station_code": "ridtele_TK.65",
                "station_name": "ฝายทดน้ำลำเหย",
                "tambon": "ต.หลุมรัง",
                "amphoe": "อ.บ่อพลอย",
                "province": "จ.กาญจนบุรี",
                "sum_rainfall_48h": 134,
                "agency": "กรมชลประทาน ",
                "latest_rainfall_datetime": "2026-09-28T11:00:00+07:00"
            }
        },
        {
            "type": "Feature",
            "geometry": {
                "type": "Point",
                "coordinates": [
                    99.48325,
                    14.06047
                ]
            },
            "properties": {
                "station_code": "KRN001",
                "station_name": "เมืองกาญจนบุรี",
                "tambon": "ต.แก่งเสี้ยน",
                "amphoe": "อ.เมืองกาญจนบุรี",
                "province": "จ.กาญจนบุรี",
                "sum_rainfall_48h": 100.6,
                "agency": "สถาบันสารสนเทศทรัพยากรน้ำ (องค์การมหาชน)",
                "latest_rainfall_datetime": "2026-09-28T11:00:00+07:00"
            }
        },
        {
            "type": "Feature",
            "geometry": {
                "type": "Point",
                "coordinates": [
                    99.155551,
                    14.233617
                ]
            },
            "properties": {
                "station_code": "STN1631",
                "station_name": "บ้านทับศิลา",
                "tambon": "ต.ช่องสะเดา",
                "amphoe": "อ.เมืองกาญจนบุรี",
                "province": "จ.กาญจนบุรี",
                "sum_rainfall_48h": 115.5,
                "agency": "กรมทรัพยากรน้ำ",
                "latest_rainfall_datetime": "2026-09-28T10:00:00+07:00"
            }
        },
        {
            "type": "Feature",
            "geometry": {
                "type": "Point",
                "coordinates": [
                    99.2754,
                    14.1647
                ]
            },
            "properties": {
                "station_code": "ridtele_TK.36",
                "station_name": "บ้านท่ามะนาว",
                "tambon": "ต.วังด้ง",
                "amphoe": "อ.เมืองกาญจนบุรี",
                "province": "จ.กาญจนบุรี",
                "sum_rainfall_48h": 154,
                "agency": "กรมชลประทาน ",
                "latest_rainfall_datetime": "2026-09-28T11:00:00+07:00"
            }
        },
        {
            "type": "Feature",
            "geometry": {
                "type": "Point",
                "coordinates": [
                    99.30444,
                    14.66122
                ]
            },
            "properties": {
                "station_code": "MOU448",
                "station_name": "ที่ทำการอุทยานแห่งชาติเฉลิมรัตนโกสินทร์",
                "tambon": "ต.เขาโจด",
                "amphoe": "อ.ศรีสวัสดิ์",
                "province": "จ.กาญจนบุรี",
                "sum_rainfall_48h": 180.2,
                "agency": "มูลนิธิอาสาเพื่อนพึ่ง (ภาฯ) ยามยาก สภากาชาดไทย",
                "latest_rainfall_datetime": "2026-09-28T11:00:00+07:00"
            }
        },
        {
            "type": "Feature",
            "geometry": {
                "type": "Point",
                "coordinates": [
                    98.9916,
                    14.6359
                ]
            },
            "properties": {
                "station_code": "MOU456",
                "station_name": "ที่ทำการอุทยานแห่งชาติเขื่อนศรีนครินทร์",
                "tambon": "ต.ด่านแม่แฉลบ",
                "amphoe": "อ.ศรีสวัสดิ์",
                "province": "จ.กาญจนบุรี",
                "sum_rainfall_48h": 228.39999999999992,
                "agency": "สถาบันสารสนเทศทรัพยากรน้ำ (องค์การมหาชน)",
                "latest_rainfall_datetime": "2026-09-28T11:00:00+07:00"
            }
        },
        {
            "type": "Feature",
            "geometry": {
                "type": "Point",
                "coordinates": [
                    99.154023,
                    14.365097
                ]
            },
            "properties": {
                "station_code": "ridtele_TK.81",
                "station_name": "สำนักงานประปา  อบต.ท่ากระดาน สาขาแก่งแคบ",
                "tambon": "ต.ท่ากระดาน",
                "amphoe": "อ.ศรีสวัสดิ์",
                "province": "จ.กาญจนบุรี",
                "sum_rainfall_48h": 218,
                "agency": "กรมชลประทาน ",
                "latest_rainfall_datetime": "2026-09-28T11:00:00+07:00"
            }
        },
        {
            "type": "Feature",
            "geometry": {
                "type": "Point",
                "coordinates": [
                    99.06556,
                    14.72684
                ]
            },
            "properties": {
                "station_code": "MKSNU05",
                "station_name": "วัดวังผาแดง",
                "tambon": "ต.นาสวน",
                "amphoe": "อ.ศรีสวัสดิ์",
                "province": "จ.กาญจนบุรี",
                "sum_rainfall_48h": 124,
                "agency": "การไฟฟ้าฝ่ายผลิตแห่งประเทศไทย",
                "latest_rainfall_datetime": "2026-09-28T10:00:00+07:00"
            }
        },
        {
            "type": "Feature",
            "geometry": {
                "type": "Point",
                "coordinates": [
                    98.59832,
                    15.02447
                ]
            },
            "properties": {
                "station_code": "MOU459",
                "station_name": "ที่ทำการอุทยานแห่งชาติเขาแหลม",
                "tambon": "ต.ปรังเผล",
                "amphoe": "อ.สังขละบุรี",
                "province": "จ.กาญจนบุรี",
                "sum_rainfall_48h": 104.6,
                "agency": "มูลนิธิอาสาเพื่อนพึ่ง (ภาฯ) ยามยาก สภากาชาดไทย",
                "latest_rainfall_datetime": "2026-09-28T11:00:00+07:00"
            }
        },
        {
            "type": "Feature",
            "geometry": {
                "type": "Point",
                "coordinates": [
                    98.50981,
                    15.30931
                ]
            },
            "properties": {
                "station_code": "FOP050",
                "station_name": "รร.กองม่องทะ สาขาไล่โว่",
                "tambon": "ต.ไล่โว่",
                "amphoe": "อ.สังขละบุรี",
                "province": "จ.กาญจนบุรี",
                "sum_rainfall_48h": 101.60000000000001,
                "agency": "มูลนิธิอาสาเพื่อนพึ่ง (ภาฯ) ยามยาก สภากาชาดไทย",
                "latest_rainfall_datetime": "2026-09-28T11:00:00+07:00"
            }
        },
        {
            "type": "Feature",
            "geometry": {
                "type": "Point",
                "coordinates": [
                    99.462599,
                    14.547573
                ]
            },
            "properties": {
                "station_code": "ridtele_TK.69",
                "station_name": "วัดหนองไม้เอื้อย",
                "tambon": "ต.หนองปรือ",
                "amphoe": "อ.หนองปรือ",
                "province": "จ.กาญจนบุรี",
                "sum_rainfall_48h": 111,
                "agency": "กรมชลประทาน ",
                "latest_rainfall_datetime": "2026-09-28T11:00:00+07:00"
            }
        },
        {
            "type": "Feature",
            "geometry": {
                "type": "Point",
                "coordinates": [
                    98.978991,
                    17.04663
                ]
            },
            "properties": {
                "station_code": "ridtele_TP.109",
                "station_name": "บ้านท้องฟ้า",
                "tambon": "ต.ท้องฟ้า",
                "amphoe": "อ.บ้านตาก",
                "province": "จ.ตาก",
                "sum_rainfall_48h": 142,
                "agency": "กรมชลประทาน ",
                "latest_rainfall_datetime": "2026-09-28T11:00:00+07:00"
            }
        },
        {
            "type": "Feature",
            "geometry": {
                "type": "Point",
                "coordinates": [
                    98.92825,
                    16.775963
                ]
            },
            "properties": {
                "station_code": "MOU305",
                "station_name": "ที่ทำการอุทยานแห่งชาติตากสินมหาราช",
                "tambon": "ต.แม่ท้อ",
                "amphoe": "อ.เมืองตาก",
                "province": "จ.ตาก",
                "sum_rainfall_48h": 172,
                "agency": "มูลนิธิอาสาเพื่อนพึ่ง (ภาฯ) ยามยาก สภากาชาดไทย",
                "latest_rainfall_datetime": "2026-09-28T11:00:00+07:00"
            }
        },
        {
            "type": "Feature",
            "geometry": {
                "type": "Point",
                "coordinates": [
                    99.08733,
                    16.81018
                ]
            },
            "properties": {
                "station_code": "RES056",
                "station_name": "อ่างเก็บน้ำตลุกหิน",
                "tambon": "ต.หนองบัวใต้",
                "amphoe": "อ.เมืองตาก",
                "province": "จ.ตาก",
                "sum_rainfall_48h": 126.6,
                "agency": "สถาบันสารสนเทศทรัพยากรน้ำ (องค์การมหาชน)",
                "latest_rainfall_datetime": "2026-09-28T11:00:00+07:00"
            }
        },
        {
            "type": "Feature",
            "geometry": {
                "type": "Point",
                "coordinates": [
                    98.89485,
                    16.783789
                ]
            },
            "properties": {
                "station_code": "VLGE45",
                "station_name": "พิพิธภัณฑ์ธรรมชาติบ้านห้วยปลาหลด",
                "tambon": "ต.ด่านแม่ละเมา",
                "amphoe": "อ.แม่สอด",
                "province": "จ.ตาก",
                "sum_rainfall_48h": 160.2,
                "agency": "สถาบันสารสนเทศทรัพยากรน้ำ (องค์การมหาชน)",
                "latest_rainfall_datetime": "2026-09-28T11:00:00+07:00"
            }
        },
        {
            "type": "Feature",
            "geometry": {
                "type": "Point",
                "coordinates": [
                    99.228801,
                    16.533265
                ]
            },
            "properties": {
                "station_code": "ridtele_TP.96",
                "station_name": "บ้านใหม่เสรีธรรม",
                "tambon": "ต.เชียงทอง",
                "amphoe": "อ.วังเจ้า",
                "province": "จ.ตาก",
                "sum_rainfall_48h": 104.5,
                "agency": "กรมชลประทาน ",
                "latest_rainfall_datetime": "2026-09-28T11:00:00+07:00"
            }
        },
        {
            "type": "Feature",
            "geometry": {
                "type": "Point",
                "coordinates": [
                    100.77499,
                    13.9416
                ]
            },
            "properties": {
                "station_code": "BKK015",
                "station_name": "คลองหกวา ลำลูกกา คลอง8",
                "tambon": "ต.ลำลูกกา",
                "amphoe": "อ.ลำลูกกา",
                "province": "จ.ปทุมธานี",
                "sum_rainfall_48h": 104,
                "agency": "สถาบันสารสนเทศทรัพยากรน้ำ (องค์การมหาชน)",
                "latest_rainfall_datetime": "2026-09-28T11:00:00+07:00"
            }
        }
    ]
}